NORAD_CAT_ID,OBJECT_NAME,OBJECT_TYPE,EPOCH,MEAN_MOTION,ECCENTRICITY,INCLINATION,RA_OF_ASC_NODE,ARG_OF_PERICENTER,MEAN_ANOMALY,BSTAR,MEAN_MOTION_DOT,MEAN_MOTION_DDOT,TLE_LINE0,TLE_LINE1,TLE_LINE2,SEMIMAJOR_AXIS,PERIOD,APOGEE,PERIGEE,DECAYED
54055.0,STARLINK-5158,PAYLOAD,2024-05-30 14:38:54,15.08844275,0.0001166,53.2188,13.6278,86.0533,274.0593,8.3264e-05,1.038e-05,0.0,0 STARLINK-5158,1 54055U 22136E   24151.61034734  .00001038  00000-0  83264-4 0  9993,2 54055  53.2188  13.6278 0001166  86.0533 274.0593 15.08844275 89005,6917.867,95.437,540.539,538.926,0.0
54055.0,STARLINK-5158,PAYLOAD,2024-05-30 21:00:26,15.08846197,0.0001168,53.2186,12.4386,85.7937,274.3189,9.4472e-05,1.216e-05,0.0,0 STARLINK-5158,1 54055U 22136E   24151.87530500  .00001216  00000-0  94472-4 0  9994,2 54055  53.2186  12.4386 0001168  85.7937 274.3189 15.08846197 89522,6917.861,95.437,540.534,538.918,0.0
54055.0,STARLINK-5158,PAYLOAD,2024-05-31 00:11:12,15.08847396,0.0001191,53.2188,11.8435,88.2448,271.8681,9.9854e-05,1.302e-05,0.0,0 STARLINK-5158,1 54055U 22136E   24152.00778366  .00001302  00000-0  99854-4 0  9999,2 54055  53.2188  11.8435 0001191  88.2448 271.8681 15.08847396 89063,6917.858,95.437,540.547,538.899,0.0
54055.0,STARLINK-5158,PAYLOAD,2024-05-31 20:51:13,15.08841808,0.0001462,53.2209,7.9775,102.6521,257.4635,1.4176e-05,-6.2e-07,0.0,0 STARLINK-5158,1 54055U 22136E   24152.86890683 -.00000062  00000-0  14176-4 0  9997,2 54055  53.2209   7.9775 0001462 102.6521 257.4635 15.08841808 89672,6917.875,95.437,540.751,538.728,0.0
54055.0,STARLINK-5158,PAYLOAD,2024-06-01 14:20:27,15.08833185,0.0001176,53.2212,4.7061,109.0819,251.03,0.00012245,1.661e-05,0.0,0 STARLINK-5158,1 54055U 22136E   24153.59754609  .00001661  00000-0  12245-3 0  9994,2 54055  53.2212   4.7061 0001176 109.0819 251.0300 15.08833185 89300,6917.901,95.438,540.58,538.953,0.0
54055.0,STARLINK-5158,PAYLOAD,2024-06-01 20:42:00,15.08840367,0.0001447,53.2205,3.5175,104.0358,256.0795,-3.7568e-05,-8.86e-06,0.0,0 STARLINK-5158,1 54055U 22136E   24153.86250766 -.00000886  00000-0 -37568-4 0  9995,2 54055  53.2205   3.5175 0001447 104.0358 256.0795 15.08840367 89346,6917.879,95.438,540.745,538.743,0.0
54055.0,STARLINK-5158,PAYLOAD,2024-06-02 20:32:48,15.08833486,0.0001178,53.2184,359.0584,95.4226,264.69,2.8255e-05,1.62e-06,0.0,0 STARLINK-5158,1 54055U 22136E   24154.85611131  .00000162  00000-0  28255-4 0  9990,2 54055  53.2184 359.0584 0001178  95.4226 264.6900 15.08833486 89979,6917.9,95.438,540.58,538.95,0.0
54055.0,STARLINK-5158,PAYLOAD,2024-06-03 06:05:06,15.08841526,0.0001315,53.2195,357.2754,98.5745,261.5396,5.3269e-05,5.6e-06,0.0,0 STARLINK-5158,1 54055U 22136E   24155.25354672  .00000560  00000-0  53269-4 0  9994,2 54055  53.2195 357.2754 0001315  98.5745 261.5396 15.08841526 90031,6917.876,95.437,540.65,538.831,0.0
54055.0,STARLINK-5158,PAYLOAD,2024-06-03 14:02:02,15.08833594,0.0001686,53.2197,355.7885,101.7384,258.3798,6.5023e-05,7.47e-06,0.0,0 STARLINK-5158,1 54055U 22136E   24155.58475258  .00000747  00000-0  65023-4 0  9992,2 54055  53.2197 355.7885 0001686 101.7384 258.3798 15.08833594 89605,6917.9,95.438,540.931,538.599,0.0
54055.0,STARLINK-5158,PAYLOAD,2024-06-03 20:23:35,15.08836808,0.0001684,53.219,354.5966,84.6097,275.5087,6.6795e-05,7.75e-06,0.0,0 STARLINK-5158,1 54055U 22136E   24155.84971181  .00000775  00000-0  66795-4 0  9995,2 54055  53.2190 354.5966 0001684  84.6097 275.5087 15.08836808 89640,6917.89,95.438,540.92,538.59,0.0
54055.0,STARLINK-5158,PAYLOAD,2024-06-04 05:55:53,15.08838765,0.0001823,53.2199,352.811,78.0109,282.1087,7.8152e-05,9.56e-06,0.0,0 STARLINK-5158,1 54055U 22136E   24156.24715139  .00000956  00000-0  78152-4 0  9990,2 54055  53.2199 352.8110 0001823  78.0109 282.1087 15.08838765 89702,6917.884,95.438,541.01,538.488,0.0
54055.0,STARLINK-5158,PAYLOAD,2024-06-04 20:14:24,15.08829067,0.0001099,53.2173,350.134,51.1603,308.9488,-0.00024455,-4.176e-05,0.0,0 STARLINK-5158,1 54055U 22136E   24156.84333402 -.00004176  00000-0 -24455-3 0  9991,2 54055  53.2173 350.1340 0001099  51.1603 308.9488 15.08829067 90277,6917.914,95.438,540.539,539.019,0.0
54055.0,STARLINK-5158,PAYLOAD,2024-06-04 21:49:47,15.08824179,8.22e-05,53.2177,349.8389,61.5704,298.5371,-0.00024304,-4.152e-05,0.0,0 STARLINK-5158,1 54055U 22136E   24156.90957739 -.00004152  00000-0 -24304-3 0  9990,2 54055  53.2177 349.8389 0000822  61.5704 298.5371 15.08824179 89800,6917.929,95.439,540.362,539.225,0.0
54055.0,STARLINK-5158,PAYLOAD,2024-06-05 05:46:42,15.08839627,4.93e-05,53.2156,348.3523,66.3675,293.7369,-0.00011061,-2.047e-05,0.0,0 STARLINK-5158,1 54055U 22136E   24157.24076412 -.00002047  00000-0 -11061-3 0  9995,2 54055  53.2156 348.3523 0000493  66.3675 293.7369 15.08839627 90333,6917.882,95.438,540.088,539.405,0.0
54055.0,STARLINK-5158,PAYLOAD,2024-06-05 21:40:32,15.08847899,0.0002351,53.2233,345.3771,76.3546,283.7708,0.00011943,1.613e-05,0.0,0 STARLINK-5158,1 54055U 22136E   24157.90315701  .00001613  00000-0  11943-3 0  9990,2 54055  53.2233 345.3771 0002351  76.3546 283.7708 15.08847899 89956,6917.856,95.437,541.348,538.095,0.0
54055.0,STARLINK-5158,PAYLOAD,2024-06-06 18:20:33,15.08832494,0.0001207,53.2173,341.5129,100.1648,259.948,0.00022614,3.312e-05,0.0,0 STARLINK-5158,1 54055U 22136E   24158.76428047  .00003312  00000-0  22614-3 0  9998,2 54055  53.2173 341.5129 0001207 100.1648 259.9480 15.08832494 90568,6917.903,95.438,540.603,538.933,0.0
54055.0,STARLINK-5158,PAYLOAD,2024-06-07 18:11:21,15.08842258,0.0001928,53.2156,337.052,87.3603,272.761,-7.0283e-05,-1.407e-05,0.0,0 STARLINK-5158,1 54055U 22136E   24159.75788287 -.00001407  00000-0 -70283-4 0  9994,2 54055  53.2156 337.0520 0001928  87.3603 272.7610 15.08842258 90232,6917.873,95.437,541.072,538.405,0.0
54055.0,STARLINK-5158,PAYLOAD,2024-06-08 05:19:02,15.08840805,0.000248,53.2105,334.9704,94.3111,265.8164,-4.3344e-05,-9.78e-06,0.0,0 STARLINK-5158,1 54055U 22136E   24160.22156159 -.00000978  00000-0 -43344-4 0  9995,2 54055  53.2105 334.9704 0002480  94.3111 265.8164 15.08840805 90785,6917.878,95.438,541.459,538.027,0.0
54055.0,STARLINK-5158,PAYLOAD,2024-06-08 21:12:55,15.08831484,9.83e-05,53.2174,331.9976,100.235,259.8753,-0.00023705,-4.057e-05,0.0,0 STARLINK-5158,1 54055U 22136E   24160.88397236 -.00004057  00000-0 -23705-3 0  9990,2 54055  53.2174 331.9976 0000983 100.2350 259.8753 15.08831484 90888,6917.906,95.438,540.451,539.091,0.0
54055.0,STARLINK-5158,PAYLOAD,2024-06-09 11:31:22,15.08838841,0.0002116,53.2204,329.3217,94.0977,266.0257,-2.7616e-05,-7.28e-06,0.0,0 STARLINK-5158,1 54055U 22136E   24161.48012687 -.00000728  00000-0 -27616-4 0  9998,2 54055  53.2204 329.3217 0002116  94.0977 266.0257 15.08838841 90979,6917.884,95.438,541.213,538.285,0.0
54055.0,STARLINK-5158,PAYLOAD,2024-06-09 17:52:54,15.08842043,0.0002546,53.2103,328.1308,93.5186,266.6098,0.00010271,1.347e-05,0.0,0 STARLINK-5158,1 54055U 22136E   24161.74508022  .00001347  00000-0  10271-3 0  9994,2 54055  53.2103 328.1308 0002546  93.5186 266.6098 15.08842043 91012,6917.874,95.437,541.5,537.978,0.0
54055.0,STARLINK-5158,PAYLOAD,2024-06-10 11:22:09,15.08839111,0.0002475,53.2099,324.8587,97.0902,263.0372,0.00013261,1.823e-05,0.0,0 STARLINK-5158,1 54055U 22136E   24162.47372434  .00001823  00000-0  13261-3 0  9992,2 54055  53.2099 324.8587 0002475  97.0902 263.0372 15.08839111 91124,6917.883,95.438,541.46,538.036,0.0
54055.0,STARLINK-5158,PAYLOAD,2024-06-10 14:32:56,15.0883074,0.0001298,53.2176,324.2661,96.1278,263.9862,0.00020347,2.951e-05,0.0,0 STARLINK-5158,1 54055U 22136E   24162.60620701  .00002951  00000-0  20347-3 0  9996,2 54055  53.2176 324.2661 0001298  96.1278 263.9862 15.08830740 90665,6917.909,95.438,540.672,538.876,0.0
54055.0,STARLINK-5158,PAYLOAD,2024-06-10 17:43:42,15.08832138,0.0001238,53.2178,323.6722,93.5022,266.6112,0.0002057,2.987e-05,0.0,0 STARLINK-5158,1 54055U 22136E   24162.73868687  .00002987  00000-0  20570-3 0  9994,2 54055  53.2178 323.6722 0001238  93.5022 266.6112 15.08832138 90683,6917.904,95.438,540.626,538.913,0.0
54055.0,STARLINK-5158,PAYLOAD,2024-06-11 14:23:43,15.08837555,0.0001096,53.2207,319.8081,100.6408,259.4708,-1.7351e-05,-5.64e-06,0.0,0 STARLINK-5158,1 54055U 22136E   24163.59981117 -.00000564  00000-0 -17351-4 0  9998,2 54055  53.2207 319.8081 0001096 100.6408 259.4708 15.08837555 90815,6917.888,95.438,540.511,538.995,0.0
54055.0,STARLINK-5158,PAYLOAD,2024-06-11 17:34:29,15.08843206,0.0001287,53.2193,319.2122,93.6729,266.4411,2.6907e-05,1.4e-06,0.0,0 STARLINK-5158,1 54055U 22136E   24163.73228675  .00000140  00000-0  26907-4 0  9992,2 54055  53.2193 319.2122 0001287  93.6729 266.4411 15.08843206 91313,6917.871,95.437,540.626,538.845,0.0
54055.0,STARLINK-5158,PAYLOAD,2024-06-12 20:36:03,15.08837015,0.0001221,53.2189,314.1571,90.2302,269.883,1.4293e-05,-6e-07,0.0,0 STARLINK-5158,1 54055U 22136E   24164.85837147 -.00000060  00000-0  14293-4 0  9993,2 54055  53.2189 314.1571 0001221  90.2302 269.8830 15.08837015 91489,6917.89,95.438,540.599,538.91,0.0
54055.0,STARLINK-5158,PAYLOAD,2024-06-13 02:57:35,15.08847237,0.0001235,53.219,312.9685,87.1192,272.9942,2.0009e-05,3.1e-07,0.0,0 STARLINK-5158,1 54055U 22136E   24165.12332435  .00000031  00000-0  20009-4 0  9993,2 54055  53.2190 312.9685 0001235  87.1192 272.9942 15.08847237 91521,6917.858,95.437,540.578,538.869,0.0
54055.0,STARLINK-5158,PAYLOAD,2024-06-13 09:19:08,15.08833117,0.0001274,53.2202,311.7806,92.2224,267.8915,0.00014538,2.026e-05,0.0,0 STARLINK-5158,1 54055U 22136E   24165.38828987  .00002026  00000-0  14538-3 0  9998,2 54055  53.2202 311.7806 0001274  92.2224 267.8915 15.08833117 91562,6917.901,95.438,540.648,538.885,0.0
54055.0,STARLINK-5158,PAYLOAD,2024-06-13 14:05:17,15.08831435,0.000133,53.2206,310.8884,91.9029,268.2115,0.00011583,1.556e-05,0.0,0 STARLINK-5158,1 54055U 22136E   24165.58701279  .00001556  00000-0  11583-3 0  9998,2 54055  53.2206 310.8884 0001330  91.9029 268.2115 15.08831435 91113,6917.907,95.438,540.692,538.851,0.0
